{
  "last_updated": "2026-05-02T06:00:03.416780",
  "satellites": {
    "98592": {
      "name": "DUTHSat-2",
      "norad_id": "98592",
      "tle": "1 64530U 25135C   26121.84555061  .00013953  00000-0  54787-3 0  9995\n2 64530  97.4567 237.8306 0004375   9.0719 351.0597 15.25816454 47868",
      "epoch": "2026-05-01T20:17:35.572704",
      "fetched_at": "2026-05-02T06:00:03.541226",
      "source": "satnogs"
    },
    "98530": {
      "name": "LAMARR",
      "norad_id": "98530",
      "tle": "1 66673U 25276H   26026.90917087  .00034524  00000-0  16680-2 0  9998\n2 66673  97.4301 102.8338 0007597 141.5941 218.5835 15.18529012  8972",
      "epoch": "2026-01-26T21:49:12.363168",
      "fetched_at": "2026-01-28T06:00:02.884758",
      "source": "satnogs",
      "note": "Using previous TLE (fetch/manual failed today)"
    },
    "98529": {
      "name": "DIRAC",
      "norad_id": "98529",
      "tle": "1 66681U 25276R   26026.63281774  .00024563  00000-0  11745-2 0  9993\n2 66681  97.4280 102.5712 0006320 148.4115 211.7500 15.18972786  8932",
      "epoch": "2026-01-26T15:11:15.452736",
      "fetched_at": "2026-01-28T06:00:02.937152",
      "source": "satnogs",
      "note": "Using previous TLE (fetch/manual failed today)"
    },
    "98518": {
      "name": "MICE-1",
      "norad_id": "98518",
      "tle": "1 66684U 25276U   26121.73791178  .00004596  00000-0  22371-3 0  9999\n2 66684  97.4283 196.1485 0006554 143.5168 216.6514 15.18852754 23362",
      "epoch": "2026-05-01T17:42:35.577792",
      "fetched_at": "2026-05-02T06:00:03.702252",
      "source": "satnogs"
    },
    "68416": {
      "name": "PeakSat",
      "norad_id": "68416",
      "tle": "1 68416U 26067A   26121.91874952  .00007894  00000-0  38161-3 0  9993\n2 68416  97.4519  81.1077 0004170  82.8954 277.2754 15.18879730  4922",
      "epoch": "2026-05-01T22:02:59.958528",
      "fetched_at": "2026-05-02T06:00:03.761224",
      "source": "satnogs"
    },
    "98370": {
      "name": "OptiSat",
      "norad_id": "98370",
      "tle": "1 69696U 69696    26089.46895426  .00000000  00000-0  00000-0 0 00004\n2 69696 097.4414 038.3720 0003145 156.7651 191.1423 15.18459822000011",
      "epoch": "2026-03-30T11:15:17.648064",
      "fetched_at": "2026-04-17T12:47:18.541523",
      "source": "manual"
    },
    "68468": {
      "name": "ERMIS-1",
      "norad_id": "68468",
      "tle": "1 68468U 26067BE  26121.82899145  .00010599  00000-0  53993-3 0  9997\n2 68468  97.4532  80.9287 0005743 201.3207 158.7788 15.16952636  4903",
      "epoch": "2026-05-01T19:53:44.861280",
      "fetched_at": "2026-05-02T06:00:03.813316",
      "source": "satnogs"
    },
    "68420": {
      "name": "ERMIS-2",
      "norad_id": "68420",
      "tle": "1 68420U 26067E   26121.91996277  .00011152  00000-0  53704-3 0  9995\n2 68420  97.4457  81.0832 0003450  75.4264 284.7352 15.18913299  4924",
      "epoch": "2026-05-01T22:04:44.783328",
      "fetched_at": "2026-05-02T06:00:03.876148",
      "source": "satnogs"
    },
    "98367": {
      "name": "ERMIS-3",
      "norad_id": "98367",
      "tle": "1 68425U 26067K   26121.92913871  .00005404  00000-0  26650-3 0  9993\n2 68425  97.4563  81.1115 0003301 109.9527 250.2063 15.18330374  4926",
      "epoch": "2026-05-01T22:17:57.584544",
      "fetched_at": "2026-05-02T06:00:03.925520",
      "source": "satnogs"
    }
  },
  "fetch_log": []
}